{"type": "FeatureCollection", "features": [ {"type": "Feature", "properties": {"norad_id": 66469, "name": "STARLINK-35451", "group": "last-30-days", "lat": -25.718268588185627, "lon": -32.44520672718904, "alt_km": 410.4642784173793, "timestamp": "2025-12-04T23:34:04.490430+00:00", "meta": {"OBJECT_NAME": "STARLINK-35451", "OBJECT_ID": "2025-262P", "EPOCH": "2025-12-04T18:00:02.000160", "MEAN_MOTION": 15.53907943, "ECCENTRICITY": 0.0001768, "INCLINATION": 42.9993, "RA_OF_ASC_NODE": 117.7931, "ARG_OF_PERICENTER": 282.7019, "MEAN_ANOMALY": 78.0053, "EPHEMERIS_TYPE": 0, "CLASSIFICATION_TYPE": "U", "NORAD_CAT_ID": 66469, "ELEMENT_SET_NO": 999, "REV_AT_EPOCH": 435, "BSTAR": -0.036317, "MEAN_MOTION_DOT": -0.02131963, "MEAN_MOTION_DDOT": 0}, "tle": {"line1": "1 66469U 25262P   25338.75002315 -.02131963  00000+0 -36317-1 0  9999", "line2": "2 66469  42.9993 117.7931 0001768 282.7019  78.0053 15.53907943  4350"}}, "geometry": {"type": "Point", "coordinates": [-32.44520672718904, -25.718268588185627]}}, {"type": "Feature", "properties": {"norad_id": 66470, "name": "STARLINK-35655", "group": "last-30-days", "lat": -23.44668302233739, "lon": -35.82131444834564, "alt_km": 410.2526019209099, "timestamp": "2025-12-04T23:34:04.490440+00:00", "meta": {"OBJECT_NAME": "STARLINK-35655", "OBJECT_ID": "2025-262Q", "EPOCH": "2025-12-04T18:00:02.000160", "MEAN_MOTION": 15.53913061, "ECCENTRICITY": 0.0001616, "INCLINATION": 42.9995, "RA_OF_ASC_NODE": 117.8032, "ARG_OF_PERICENTER": 275.2897, "MEAN_ANOMALY": 81.5825, "EPHEMERIS_TYPE": 0, "CLASSIFICATION_TYPE": "U", "NORAD_CAT_ID": 66470, "ELEMENT_SET_NO": 999, "REV_AT_EPOCH": 435, "BSTAR": -0.036396, "MEAN_MOTION_DOT": -0.02136329, "MEAN_MOTION_DDOT": 0}, "tle": {"line1": "1 66470U 25262Q   25338.75002315 -.02136329  00000+0 -36396-1 0  9999", "line2": "2 66470  42.9995 117.8032 0001616 275.2897  81.5825 15.53913061  4354"}}, "geometry": {"type": "Point", "coordinates": [-35.82131444834564, -23.44668302233739]}}, {"type": "Feature", "properties": {"norad_id": 66471, "name": "STARLINK-35569", "group": "last-30-days", "lat": -24.593333817796502, "lon": -34.14628501580015, "alt_km": 410.31076895929345, "timestamp": "2025-12-04T23:34:04.490450+00:00", "meta": {"OBJECT_NAME": "STARLINK-35569", "OBJECT_ID": "2025-262R", "EPOCH": "2025-12-04T18:00:02.000160", "MEAN_MOTION": 15.53915557, "ECCENTRICITY": 0.0001613, "INCLINATION": 42.9992, "RA_OF_ASC_NODE": 117.7982, "ARG_OF_PERICENTER": 275.4299, "MEAN_ANOMALY": 83.3583, "EPHEMERIS_TYPE": 0, "CLASSIFICATION_TYPE": "U", "NORAD_CAT_ID": 66471, "ELEMENT_SET_NO": 999, "REV_AT_EPOCH": 435, "BSTAR": -0.036488, "MEAN_MOTION_DOT": -0.0214129, "MEAN_MOTION_DDOT": 0}, "tle": {"line1": "1 66471U 25262R   25338.75002315 -.02141290  00000+0 -36488-1 0  9995", "line2": "2 66471  42.9992 117.7982 0001613 275.4299  83.3583 15.53915557  4353"}}, "geometry": {"type": "Point", "coordinates": [-34.14628501580015, -24.593333817796502]}}, {"type": "Feature", "properties": {"norad_id": 66472, "name": "STARLINK-35567", "group": "last-30-days", "lat": -26.82809140836652, "lon": -30.70304663919255, "alt_km": 410.4383012993667, "timestamp": "2025-12-04T23:34:04.490460+00:00", "meta": {"OBJECT_NAME": "STARLINK-35567", "OBJECT_ID": "2025-262S", "EPOCH": "2025-12-04T18:00:02.000160", "MEAN_MOTION": 15.5391015, "ECCENTRICITY": 0.0001558, "INCLINATION": 42.9994, "RA_OF_ASC_NODE": 117.7886, "ARG_OF_PERICENTER": 276.2261, "MEAN_ANOMALY": 86.3964, "EPHEMERIS_TYPE": 0, "CLASSIFICATION_TYPE": "U", "NORAD_CAT_ID": 66472, "ELEMENT_SET_NO": 999, "REV_AT_EPOCH": 435, "BSTAR": -0.036265, "MEAN_MOTION_DOT": -0.02129231, "MEAN_MOTION_DDOT": 0}, "tle": {"line1": "1 66472U 25262S   25338.75002315 -.02129231  00000+0 -36265-1 0  9990", "line2": "2 66472  42.9994 117.7886 0001558 276.2261  86.3964 15.53910150  4355"}}, "geometry": {"type": "Point", "coordinates": [-30.70304663919255, -26.82809140836652]}}, {"type": "Feature", "properties": {"norad_id": 66473, "name": "STARLINK-35568", "group": "last-30-days", "lat": -27.911850379684378, "lon": -28.93412636656116, "alt_km": 410.5538382795721, "timestamp": "2025-12-04T23:34:04.490472+00:00", "meta": {"OBJECT_NAME": "STARLINK-35568", "OBJECT_ID": "2025-262T", "EPOCH": "2025-12-04T18:00:02.000160", "MEAN_MOTION": 15.53912007, "ECCENTRICITY": 0.0001716, "INCLINATION": 42.9996, "RA_OF_ASC_NODE": 117.7838, "ARG_OF_PERICENTER": 282.7715, "MEAN_ANOMALY": 81.7671, "EPHEMERIS_TYPE": 0, "CLASSIFICATION_TYPE": "U", "NORAD_CAT_ID": 66473, "ELEMENT_SET_NO": 999, "REV_AT_EPOCH": 435, "BSTAR": -0.036369, "MEAN_MOTION_DOT": -0.02134895, "MEAN_MOTION_DDOT": 0}, "tle": {"line1": "1 66473U 25262T   25338.75002315 -.02134895  00000+0 -36369-1 0  9998", "line2": "2 66473  42.9996 117.7838 0001716 282.7715  81.7671 15.53912007  4354"}}, "geometry": {"type": "Point", "coordinates": [-28.93412636656116, -27.911850379684378]}}, {"type": "Feature", "properties": {"norad_id": 66474, "name": "STARLINK-35620", "group": "last-30-days", "lat": -28.974376810767456, "lon": -27.126200941356863, "alt_km": 410.5386603388142, "timestamp": "2025-12-04T23:34:04.490482+00:00", "meta": {"OBJECT_NAME": "STARLINK-35620", "OBJECT_ID": "2025-262U", "EPOCH": "2025-12-04T18:00:02.000160", "MEAN_MOTION": 15.53915993, "ECCENTRICITY": 0.0001706, "INCLINATION": 42.9995, "RA_OF_ASC_NODE": 117.7787, "ARG_OF_PERICENTER": 280.2246, "MEAN_ANOMALY": 86.2289, "EPHEMERIS_TYPE": 0, "CLASSIFICATION_TYPE": "U", "NORAD_CAT_ID": 66474, "ELEMENT_SET_NO": 999, "REV_AT_EPOCH": 435, "BSTAR": -0.036477, "MEAN_MOTION_DOT": -0.02140813, "MEAN_MOTION_DDOT": 0}, "tle": {"line1": "1 66474U 25262U   25338.75002315 -.02140813  00000+0 -36477-1 0  9996", "line2": "2 66474  42.9995 117.7787 0001706 280.2246  86.2289 15.53915993  4350"}}, "geometry": {"type": "Point", "coordinates": [-27.126200941356863, -28.974376810767456]}}, {"type": "Feature", "properties": {"norad_id": 66475, "name": "STARLINK-35538", "group": "last-30-days", "lat": -30.013499081683644, "lon": -25.277723382362428, "alt_km": 410.6364695949924, "timestamp": "2025-12-04T23:34:04.490509+00:00", "meta": {"OBJECT_NAME": "STARLINK-35538", "OBJECT_ID": "2025-262V", "EPOCH": "2025-12-04T18:00:02.000160", "MEAN_MOTION": 15.53911178, "ECCENTRICITY": 0.0001594, "INCLINATION": 42.9996, "RA_OF_ASC_NODE": 117.7747, "ARG_OF_PERICENTER": 281.0844, "MEAN_ANOMALY": 87.2908, "EPHEMERIS_TYPE": 0, "CLASSIFICATION_TYPE": "U", "NORAD_CAT_ID": 66475, "ELEMENT_SET_NO": 999, "REV_AT_EPOCH": 435, "BSTAR": -0.036376, "MEAN_MOTION_DOT": -0.0213511, "MEAN_MOTION_DDOT": 0}, "tle": {"line1": "1 66475U 25262V   25338.75002315 -.02135110  00000+0 -36376-1 0  9999", "line2": "2 66475  42.9996 117.7747 0001594 281.0844  87.2908 15.53911178  4356"}}, "geometry": {"type": "Point", "coordinates": [-25.277723382362428, -30.013499081683644]}}, {"type": "Feature", "properties": {"norad_id": 66476, "name": "STARLINK-35372", "group": "last-30-days", "lat": -31.024292703209195, "lon": -23.395367071104385, "alt_km": 410.6392785022899, "timestamp": "2025-12-04T23:34:04.490520+00:00", "meta": {"OBJECT_NAME": "STARLINK-35372", "OBJECT_ID": "2025-262W", "EPOCH": "2025-12-04T18:00:02.000160", "MEAN_MOTION": 15.53907752, "ECCENTRICITY": 0.0001673, "INCLINATION": 42.9997, "RA_OF_ASC_NODE": 117.7694, "ARG_OF_PERICENTER": 281.165, "MEAN_ANOMALY": 89.1293, "EPHEMERIS_TYPE": 0, "CLASSIFICATION_TYPE": "U", "NORAD_CAT_ID": 66476, "ELEMENT_SET_NO": 999, "REV_AT_EPOCH": 424, "BSTAR": -0.036303, "MEAN_MOTION_DOT": -0.02131138, "MEAN_MOTION_DDOT": 0}, "tle": {"line1": "1 66476U 25262W   25338.75002315 -.02131138  00000+0 -36303-1 0  9996", "line2": "2 66476  42.9997 117.7694 0001673 281.1650  89.1293 15.53907752  4242"}}, "geometry": {"type": "Point", "coordinates": [-23.395367071104385, -31.024292703209195]}}, {"type": "Feature", "properties": {"norad_id": 66477, "name": "STARLINK-35354", "group": "last-30-days", "lat": -32.960835639996155, "lon": -19.50720647134716, "alt_km": 410.62557361952986, "timestamp": "2025-12-04T23:34:04.490530+00:00", "meta": {"OBJECT_NAME": "STARLINK-35354", "OBJECT_ID": "2025-262X", "EPOCH": "2025-12-04T18:00:02.000160", "MEAN_MOTION": 15.53911423, "ECCENTRICITY": 0.0001632, "INCLINATION": 42.9996, "RA_OF_ASC_NODE": 117.759, "ARG_OF_PERICENTER": 276.8015, "MEAN_ANOMALY": 97.3241, "EPHEMERIS_TYPE": 0, "CLASSIFICATION_TYPE": "U", "NORAD_CAT_ID": 66477, "ELEMENT_SET_NO": 999, "REV_AT_EPOCH": 435, "BSTAR": -0.036358, "MEAN_MOTION_DOT": -0.0213424, "MEAN_MOTION_DDOT": 0}, "tle": {"line1": "1 66477U 25262X   25338.75002315 -.02134240  00000+0 -36358-1 0  9994", "line2": "2 66477  42.9996 117.7590 0001632 276.8015  97.3241 15.53911423  4354"}}, "geometry": {"type": "Point", "coordinates": [-19.50720647134716, -32.960835639996155]}}, {"type": "Feature", "properties": {"norad_id": 66478, "name": "STARLINK-35283", "group": "last-30-days", "lat": -33.88146904240883, "lon": -17.50265438534944, "alt_km": 410.7411930291737, "timestamp": "2025-12-04T23:34:04.490564+00:00", "meta": {"OBJECT_NAME": "STARLINK-35283", "OBJECT_ID": "2025-262Y", "EPOCH": "2025-12-04T18:00:02.000160", "MEAN_MOTION": 15.53906643, "ECCENTRICITY": 0.0001669, "INCLINATION": 42.9994, "RA_OF_ASC_NODE": 117.7537, "ARG_OF_PERICENTER": 282.951, "MEAN_ANOMALY": 93.0945, "EPHEMERIS_TYPE": 0, "CLASSIFICATION_TYPE": "U", "NORAD_CAT_ID": 66478, "ELEMENT_SET_NO": 999, "REV_AT_EPOCH": 435, "BSTAR": -0.036255, "MEAN_MOTION_DOT": -0.02128558, "MEAN_MOTION_DDOT": 0}, "tle": {"line1": "1 66478U 25262Y   25338.75002315 -.02128558  00000+0 -36255-1 0  9996", "line2": "2 66478  42.9994 117.7537 0001669 282.9510  93.0945 15.53906643  4354"}}, "geometry": {"type": "Point", "coordinates": [-17.50265438534944, -33.88146904240883]}}]}